<?xml version="1.0" encoding="UTF-8"?>
<gpx version="1.1" creator="JPX - https://github.com/jenetics/jpx" xmlns="http://www.topografix.com/GPX/1/1">
    <trk>
        <trkseg>
            <trkpt lat="48.201" lon="16.31651">
                <ele>283</ele>
            </trkpt>
            <trkpt lat="48.20112" lon="16.31639">
                <ele>278</ele>
            </trkpt>
            <trkpt lat="48.20126" lon="16.31601">
                <ele>274</ele>
            </trkpt>
        </trkseg>
    </trk>
</gpx>